start=new Date('2022-05-22T00:00:00.000Z').valueOf();
sats=[{"PERIOD":"95.593","CLASSIFICATION_TYPE":"U","TIME_SYSTEM":"UTC","NORAD_CAT_ID":"46330","OBJECT_ID":"2020-062F","ECCENTRICITY":"0.00021010","REF_FRAME":"TEME","SEMIMAJOR_AXIS":"6925.380","GP_ID":"204189955","APOAPSIS":"548.700","MEAN_MOTION":"15.06389759","FILE":"3457577","LAUNCH_DATE":"2020-09-03","RCS_SIZE":"LARGE","OBJECT_NAME":"STARLINK-1710","TLE_LINE1":"1 46330U 20062F   22141.89628693  .00000079  00000-0  24241-4 0  9990","ARG_OF_PERICENTER":"49.5776","BSTAR":"0.00002424100000","EPHEMERIS_TYPE":"0","OBJECT_TYPE":"PAYLOAD","EPOCH":"2022-05-21T21:30:39.190752","RA_OF_ASC_NODE":"106.6551","TLE_LINE2":"2 46330  53.0553 106.6551 0002101  49.5776 310.5396 15.06389759 95425","REV_AT_EPOCH":"9542","DECAY_DATE":null,"COUNTRY_CODE":"US","INCLINATION":"53.0553","PERIAPSIS":"545.790","MEAN_MOTION_DDOT":"0.0000000000000","ELEMENT_SET_NO":"999","SITE":"AFETR","MEAN_ANOMALY":"310.5396","MEAN_MOTION_DOT":"0.00000079","CENTER_NAME":"EARTH","MEAN_ELEMENT_THEORY":"SGP4"},{"MEAN_ANOMALY":"298.6808","SITE":"AFETR","ELEMENT_SET_NO":"999","MEAN_ELEMENT_THEORY":"SGP4","CENTER_NAME":"EARTH","MEAN_MOTION_DOT":"-0.00000052","TLE_LINE2":"2 46331  53.0528 127.6955 0001721  61.4354 298.6808 15.06394542 95106","RA_OF_ASC_NODE":"127.6955","EPOCH":"2022-05-21T15:58:54.997248","OBJECT_TYPE":"PAYLOAD","MEAN_MOTION_DDOT":"0.0000000000000","PERIAPSIS":"546.038","INCLINATION":"53.0528","COUNTRY_CODE":"US","DECAY_DATE":null,"REV_AT_EPOCH":"9510","TLE_LINE1":"1 46331U 20062G   22141.66591432 -.00000052  00000-0  15423-4 0  9990","RCS_SIZE":"LARGE","OBJECT_NAME":"STARLINK-1719","LAUNCH_DATE":"2020-09-03","MEAN_MOTION":"15.06394542","FILE":"3457577","APOAPSIS":"548.422","EPHEMERIS_TYPE":"0","BSTAR":"0.00001542300000","ARG_OF_PERICENTER":"61.4354","NORAD_CAT_ID":"46331","OBJECT_ID":"2020-062G","TIME_SYSTEM":"UTC","CLASSIFICATION_TYPE":"U","PERIOD":"95.592","GP_ID":"204191193","SEMIMAJOR_AXIS":"6925.365","REF_FRAME":"TEME","ECCENTRICITY":"0.00017210"},{"NORAD_CAT_ID":"46332","OBJECT_ID":"2020-062H","TIME_SYSTEM":"UTC","PERIOD":"95.592","CLASSIFICATION_TYPE":"U","SEMIMAJOR_AXIS":"6925.342","REF_FRAME":"TEME","ECCENTRICITY":"0.00019270","GP_ID":"204190957","LAUNCH_DATE":"2020-09-03","FILE":"3457577","MEAN_MOTION":"15.06402093","APOAPSIS":"548.542","TLE_LINE1":"1 46332U 20062H   22141.94234817  .00001584  00000-0  12524-3 0  9991","RCS_SIZE":"LARGE","OBJECT_NAME":"STARLINK-1721","EPHEMERIS_TYPE":"0","BSTAR":"0.00012524000000","ARG_OF_PERICENTER":"46.6490","OBJECT_TYPE":"PAYLOAD","TLE_LINE2":"2 46332  53.0547 126.4671 0001927  46.6490 313.4660 15.06402093 95141","RA_OF_ASC_NODE":"126.4671","EPOCH":"2022-05-21T22:36:58.881888","INCLINATION":"53.0547","COUNTRY_CODE":"US","DECAY_DATE":null,"REV_AT_EPOCH":"9514","MEAN_MOTION_DDOT":"0.0000000000000","PERIAPSIS":"545.873","ELEMENT_SET_NO":"999","MEAN_ANOMALY":"313.4660","SITE":"AFETR","CENTER_NAME":"EARTH","MEAN_MOTION_DOT":"0.00001584","MEAN_ELEMENT_THEORY":"SGP4"},{"MEAN_MOTION_DOT":"-0.00000730","CENTER_NAME":"EARTH","MEAN_ELEMENT_THEORY":"SGP4","ELEMENT_SET_NO":"999","SITE":"AFETR","MEAN_ANOMALY":"313.5560","DECAY_DATE":null,"REV_AT_EPOCH":"9510","INCLINATION":"53.0546","COUNTRY_CODE":"US","MEAN_MOTION_DDOT":"0.0000000000000","PERIAPSIS":"545.781","OBJECT_TYPE":"PAYLOAD","RA_OF_ASC_NODE":"127.5936","EPOCH":"2022-05-21T16:36:03.153888","TLE_LINE2":"2 46333  53.0546 127.5936 0002086  46.5602 313.5560 15.06396207 95103","ARG_OF_PERICENTER":"46.5602","EPHEMERIS_TYPE":"0","BSTAR":"-0.00003012600000","MEAN_MOTION":"15.06396207","FILE":"3457577","APOAPSIS":"548.670","LAUNCH_DATE":"2020-09-03","RCS_SIZE":"LARGE","OBJECT_NAME":"STARLINK-1723","TLE_LINE1":"1 46333U 20062J   22141.69170317 -.00000730  00000-0 -30126-4 0  9991","ECCENTRICITY":"0.00020860","SEMIMAJOR_AXIS":"6925.360","REF_FRAME":"TEME","GP_ID":"204190192","PERIOD":"95.592","CLASSIFICATION_TYPE":"U","NORAD_CAT_ID":"46333","TIME_SYSTEM":"UTC","OBJECT_ID":"2020-062J"},{"CLASSIFICATION_TYPE":"U","PERIOD":"95.592","NORAD_CAT_ID":"46334","TIME_SYSTEM":"UTC","OBJECT_ID":"2020-062K","GP_ID":"204190442","ECCENTRICITY":"0.00020360","REF_FRAME":"TEME","SEMIMAJOR_AXIS":"6925.348","OBJECT_NAME":"STARLINK-1725","RCS_SIZE":"LARGE","TLE_LINE1":"1 46334U 20062K   22141.60045450  .00001035  00000-0  88382-4 0  9996","APOAPSIS":"548.623","FILE":"3457577","MEAN_MOTION":"15.06400279","LAUNCH_DATE":"2020-09-03","ARG_OF_PERICENTER":"45.1524","BSTAR":"0.00008838200000","EPHEMERIS_TYPE":"0","EPOCH":"2022-05-21T14:24:39.268800","RA_OF_ASC_NODE":"107.9841","TLE_LINE2":"2 46334  53.0548 107.9841 0002036  45.1524 314.9630 15.06400279 95373","OBJECT_TYPE":"PAYLOAD","PERIAPSIS":"545.803","MEAN_MOTION_DDOT":"0.0000000000000","REV_AT_EPOCH":"9537","DECAY_DATE":null,"COUNTRY_CODE":"US","INCLINATION":"53.0548","SITE":"AFETR","MEAN_ANOMALY":"314.9630","ELEMENT_SET_NO":"999","MEAN_ELEMENT_THEORY":"SGP4","MEAN_MOTION_DOT":"0.00001035","CENTER_NAME":"EARTH"},{"ARG_OF_PERICENTER":"46.7744","BSTAR":"0.00018182000000","EPHEMERIS_TYPE":"0","OBJECT_NAME":"STARLINK-1727","RCS_SIZE":"LARGE","TLE_LINE1":"1 46335U 20062L   22141.65484634  .00002428  00000-0  18182-3 0  9990","APOAPSIS":"548.818","FILE":"3457577","MEAN_MOTION":"15.06403460","LAUNCH_DATE":"2020-09-03","GP_ID":"204190707","ECCENTRICITY":"0.00023320","REF_FRAME":"TEME","SEMIMAJOR_AXIS":"6925.338","CLASSIFICATION_TYPE":"U","PERIOD":"95.592","NORAD_CAT_ID":"46335","TIME_SYSTEM":"UTC","OBJECT_ID":"2020-062L","MEAN_ELEMENT_THEORY":"SGP4","MEAN_MOTION_DOT":"0.00002428","CENTER_NAME":"EARTH","SITE":"AFETR","MEAN_ANOMALY":"313.3440","ELEMENT_SET_NO":"999","PERIAPSIS":"545.588","MEAN_MOTION_DDOT":"0.0000000000000","REV_AT_EPOCH":"9510","DECAY_DATE":null,"COUNTRY_CODE":"US","INCLINATION":"53.0548","EPOCH":"2022-05-21T15:42:58.723776","RA_OF_ASC_NODE":"127.7606","TLE_LINE2":"2 46335  53.0548 127.7606 0002332  46.7744 313.3440 15.06403460 95101","OBJECT_TYPE":"PAYLOAD"},{"OBJECT_NAME":"STARLINK-1738","RCS_SIZE":"LARGE","TLE_LINE1":"1 46336U 20062M   22141.64562085  .00000658  00000-0  63071-4 0  9998","APOAPSIS":"548.896","FILE":"3457577","MEAN_MOTION":"15.06404284","LAUNCH_DATE":"2020-09-03","ARG_OF_PERICENTER":"43.1268","BSTAR":"0.00006307100000","EPHEMERIS_TYPE":"0","PERIOD":"95.592","CLASSIFICATION_TYPE":"U","NORAD_CAT_ID":"46336","OBJECT_ID":"2020-062M","TIME_SYSTEM":"UTC","GP_ID":"204191444","ECCENTRICITY":"0.00024480","REF_FRAME":"TEME","SEMIMAJOR_AXIS":"6925.335","SITE":"AFETR","MEAN_ANOMALY":"316.9913","ELEMENT_SET_NO":"999","MEAN_ELEMENT_THEORY":"SGP4","MEAN_MOTION_DOT":"0.00000658","CENTER_NAME":"EARTH","EPOCH":"2022-05-21T15:29:41.641440","RA_OF_ASC_NODE":"107.7951","TLE_LINE2":"2 46336  53.0549 107.7951 0002448  43.1268 316.9913 15.06404284 95372","OBJECT_TYPE":"PAYLOAD","PERIAPSIS":"545.505","MEAN_MOTION_DDOT":"0.0000000000000","REV_AT_EPOCH":"9537","DECAY_DATE":null,"COUNTRY_CODE":"US","INCLINATION":"53.0549"},{"EPHEMERIS_TYPE":"0","BSTAR":"0.00013783000000","ARG_OF_PERICENTER":"44.2309","TLE_LINE1":"1 46337U 20062N   22141.85941317  .00001771  00000-0  13783-3 0  9992","OBJECT_NAME":"STARLINK-1750","RCS_SIZE":"LARGE","LAUNCH_DATE":"2020-09-03","FILE":"3457200","MEAN_MOTION":"15.06394222","APOAPSIS":"548.791","GP_ID":"204162144","SEMIMAJOR_AXIS":"6925.366","REF_FRAME":"TEME","ECCENTRICITY":"0.00022520","NORAD_CAT_ID":"46337","OBJECT_ID":"2020-062N","TIME_SYSTEM":"UTC","PERIOD":"95.593","CLASSIFICATION_TYPE":"U","MEAN_ELEMENT_THEORY":"SGP4","CENTER_NAME":"EARTH","MEAN_MOTION_DOT":"0.00001771","MEAN_ANOMALY":"315.8860","SITE":"AFETR","ELEMENT_SET_NO":"999","MEAN_MOTION_DDOT":"0.0000000000000","PERIAPSIS":"545.672","INCLINATION":"53.0556","COUNTRY_CODE":"US","DECAY_DATE":null,"REV_AT_EPOCH":"9559","TLE_LINE2":"2 46337  53.0556 106.8343 0002252  44.2309 315.8860 15.06394222 95590","RA_OF_ASC_NODE":"106.8343","EPOCH":"2022-05-21T20:37:33.297888","OBJECT_TYPE":"PAYLOAD"},{"ELEMENT_SET_NO":"999","MEAN_ANOMALY":"309.9103","SITE":"AFETR","CENTER_NAME":"EARTH","MEAN_MOTION_DOT":"0.00000639","MEAN_ELEMENT_THEORY":"SGP4","OBJECT_TYPE":"PAYLOAD","TLE_LINE2":"2 46338  53.0548 128.6949 0002081  50.2069 309.9103 15.06394967 95068","RA_OF_ASC_NODE":"128.6949","EPOCH":"2022-05-21T10:40:26.514912","INCLINATION":"53.0548","COUNTRY_CODE":"US","DECAY_DATE":null,"REV_AT_EPOCH":"9506","MEAN_MOTION_DDOT":"0.0000000000000","PERIAPSIS":"545.788","LAUNCH_DATE":"2020-09-03","FILE":"3457102","MEAN_MOTION":"15.06394967","APOAPSIS":"548.670","TLE_LINE1":"1 46338U 20062P   22141.44475133  .00000639  00000-0  61801-4 0  9993","OBJECT_NAME":"STARLINK-1752","RCS_SIZE":"LARGE","EPHEMERIS_TYPE":"0","BSTAR":"0.00006180100000","ARG_OF_PERICENTER":"50.2069","NORAD_CAT_ID":"46338","OBJECT_ID":"2020-062P","TIME_SYSTEM":"UTC","PERIOD":"95.592","CLASSIFICATION_TYPE":"U","SEMIMAJOR_AXIS":"6925.364","REF_FRAME":"TEME","ECCENTRICITY":"0.00020810","GP_ID":"204153897"},{"CLASSIFICATION_TYPE":"U","PERIOD":"95.592","OBJECT_ID":"2020-062R","NORAD_CAT_ID":"46340","TIME_SYSTEM":"UTC","ECCENTRICITY":"0.00019810","SEMIMAJOR_AXIS":"6925.322","REF_FRAME":"TEME","GP_ID":"204191194","FILE":"3457577","MEAN_MOTION":"15.06408814","APOAPSIS":"548.558","LAUNCH_DATE":"2020-09-03","OBJECT_NAME":"STARLINK-1759","RCS_SIZE":"LARGE","TLE_LINE1":"1 46340U 20062R   22141.68339056  .00006545  00000-0  45776-3 0  9999","ARG_OF_PERICENTER":"43.0337","EPHEMERIS_TYPE":"0","BSTAR":"0.00045776000000","OBJECT_TYPE":"PAYLOAD","RA_OF_ASC_NODE":"127.6215","EPOCH":"2022-05-21T16:24:04.944384","TLE_LINE2":"2 46340  53.0550 127.6215 0001981  43.0337 317.0807 15.06408814 95108","DECAY_DATE":null,"REV_AT_EPOCH":"9510","INCLINATION":"53.0550","COUNTRY_CODE":"US","MEAN_MOTION_DDOT":"0.0000000000000","PERIAPSIS":"545.815","ELEMENT_SET_NO":"999","SITE":"AFETR","MEAN_ANOMALY":"317.0807","MEAN_MOTION_DOT":"0.00006545","CENTER_NAME":"EARTH","MEAN_ELEMENT_THEORY":"SGP4"}];
